TOMORROW-S3             
1 62392U 24247R   26068.49782200  .00007664  00000+0  28858-3 0  9991
2 62392  44.9999 117.9871 0000396 320.9462  39.1392 15.27672122 67708
STARLINK-35996          
1 66800U 25278K   26068.43245785  .00030162  00000+0  11011-2 0  9991
2 66800  42.9976 115.4772 0001029 262.9812  97.0923 15.27581683 15178
